[
    {
        "Altitude(m)": 607895.795339192,
        "Argument of Periapsis(deg)": 0.0,
        "Eccentricity": 0.0,
        "Inclination(deg)": 60.0,
        "Latitude(deg)": 40.99827987839126,
        "Longitude(deg)": -134.9112791961588,
        "Mean Anomaly(deg)": 130.9091,
        "RAAN(deg)": 175.0,
        "Satellite Name": "Test1 778",
        "Satellite Number": 778,
        "Semi-Major Axis(m)": 6980739.136638005,
        "Time(s)": 0
    },
    {
        "Altitude(m)": 607795.1079594265,
        "Argument of Periapsis(deg)": 0.00010418945913296404,
        "Eccentricity": 0.0,
        "Inclination(deg)": 60.0,
        "Latitude(deg)": 40.53060337823014,
        "Longitude(deg)": -134.41468703467598,
        "Mean Anomaly(deg)": 131.5292061454618,
        "RAAN(deg)": 174.99957995086024,
        "Satellite Name": "Test1 778",
        "Satellite Number": 778,
        "Semi-Major Axis(m)": 6980739.136638005,
        "Time(s)": 10
    }
]